INTELSAT 902 (IS-902)   
1 26900U 01039A   26112.21242902 -.00000290  00000+0  00000+0 0  9994
2 26900   5.9774  72.4513 0004589 315.2219 208.9820  1.00272530 90134
INTELSAT 904 (IS-904)   
1 27380U 02007A   26112.22753053 -.00000232  00000+0  00000+0 0  9994
2 27380   6.7825  69.8404 0007479 335.7031 215.1837  1.00270281 51206
DIRECTV 5 (TEMPO 1)     
1 27426U 02023A   26112.51433578 -.00000065  00000+0  00000+0 0  9996
2 27426   4.7374  75.9823 0003300 312.5777 257.0690  1.00271267 87561
INTELSAT 905 (IS-905)   
1 27438U 02027A   26112.45114240  .00000087  00000+0  00000+0 0  9991
2 27438   6.6160  70.4554 0003180 331.6713 193.5893  1.00271554 50802
GALAXY 3C (G-3C)        
1 27445U 02030A   26112.66125963 -.00000161  00000+0  00000+0 0  9994
2 27445   3.5878  78.7176 0001394  28.4272 246.7612  1.00271016 45930
INTELSAT 906 (IS-906)   
1 27513U 02041A   26112.63232464  .00000004  00000+0  00000+0 0  9999
2 27513   5.6630  73.5900 0003906 334.1218  94.7756  1.00273504 86479
GALAXY 13 (HORIZONS-1)  
1 27954U 03044A   26112.46225209  .00000124  00000+0  00000+0 0  9995
2 27954   1.2754  84.5241 0002236 307.8515 194.5448  1.00271519 46016
INTELSAT 10-02          
1 28358U 04022A   26112.35044892 -.00000020  00000+0  00000+0 0  9992
2 28358   0.0108  66.6185 0001092 353.5719 275.3677  1.00270629 79992
DIRECTV 8               
1 28659U 05019A   26112.31794218 -.00000007  00000+0  00000+0 0  9998
2 28659   0.0168 246.0319 0002939 147.4935 172.2487  1.00267840 76516
GALAXY 28 (G-28)        
1 28702U 05022A   26112.22753053 -.00000207  00000+0  00000+0 0  9995
2 28702   3.1568  79.5915 0002941 307.7796 237.7337  1.00272221 51415
GALAXY 16 (G-16)        
1 29236U 06023A   26112.50878407 -.00000136  00000+0  00000+0 0  9993
2 29236   0.0173 218.5850 0002678 176.3654 259.7801  1.00269738 72411
DIRECTV 9S              
1 29494U 06043A   26112.50878407 -.00000122  00000+0  00000+0 0  9996
2 29494   2.2783  81.5347 0003928 324.3590 246.6330  1.00270973 50826
GALAXY 17 (G-17)        
1 31307U 07016B   26112.50322366 -.00000215  00000+0  00000+0 0  9994
2 31307   2.8325  80.5666 0004037 323.3118 262.8486  1.00271505 69240
INTELSAT 11 (IS-11)     
1 32253U 07044B   26112.20530782 -.00000114  00000+0  00000+0 0  9994
2 32253   3.4210  79.3196 0001849 218.9773 357.7781  0.99051559 67892
HORIZONS-2              
1 32388U 07063B   26112.49767132 -.00000262  00000+0  00000+0 0  9990
2 32388   2.4598  81.2756 0003057 319.8559 274.7669  1.00268726 67251
DIRECTV 11              
1 32729U 08013A   26112.45739281 -.00000135  00000+0  00000+0 0  9994
2 32729   0.0037  15.9433 0000187 311.8163 308.2343  1.00269107 45030
GALAXY 18 (G-18)        
1 32951U 08024A   26112.37683601  .00000016  00000+0  00000+0 0  9995
2 32951   0.0182 244.0948 0002938 148.5653 190.4271  1.00269020 45292
INTELSAT 25 (IS-25)     
1 33153U 08034A   26112.22753053 -.00000273  00000+0  00000+0 0  9990
2 33153   2.5643  80.9550 0003230 260.0261 274.8508  0.99981868 65136
GALAXY 19 (G-19)        
1 33376U 08045A   26112.50878407 -.00000148  00000+0  00000+0 0  9992
2 33376   0.0177 255.0798 0003238 154.8073 246.8216  1.00267669 64342
FM-5                    
1 35493U 09034A   26112.50322366 -.00000210  00000+0  00000+0 0  9991
2 35493   0.0130 266.0717 0000701 352.7109  46.7849  1.00270047 46081
INTELSAT 14 (IS-14)     
1 36097U 09064A   26112.22758640 -.00000282  00000+0  00000+0 0  9991
2 36097   0.0167 261.9892 0002389 127.3154 217.9136  1.00268081 60048
INTELSAT 15 (IS-15)     
1 36106U 09067A   26112.63635875 -.00000195  00000+0  00000+0 0  9997
2 36106   0.0042  61.8420 0002159 326.9531 136.1357  1.00270417 40676
DIRECTV 12              
1 36131U 09075A   26112.50878407 -.00000113  00000+0  00000+0 0  9990
2 36131   0.0046  55.1085 0000231 295.8636 300.0280  1.00271612 45995
INTELSAT 16 (IS-16)     
1 36397U 10006A   26112.52058881 -.00000254  00000+0  00000+0 0  9994
2 36397   0.0073 268.5237 0001915 148.0249 265.2396  1.00269682 59097
XM-5                    
1 37185U 10053A   26112.46225172 -.00000032  00000+0  00000+0 0  9998
2 37185   0.0625 271.1017 0003592 278.1570  72.4714  1.00269505 56922
INTELSAT 17 (IS-17)     
1 37238U 10065B   26112.28516898 -.00000011  00000+0  00000+0 0  9995
2 37238   0.0183 225.4358 0002848 184.0578 329.5259  1.00274133 52688
INTELSAT 28 (IS-28)     
1 37392U 11016A   26112.25779818 -.00000233  00000+0  00000+0 0  9999
2 37392   1.6626  83.2622 0003987 310.5975 237.5642  1.00271559 52722
INTELSAT 18 (IS-18)     
1 37834U 11056A   26112.54766837  .00000042  00000+0  00000+0 0  9990
2 37834   0.0135 259.3375 0001599 120.7680 207.6488  1.00268554 53259
INTELSAT 22 (IS-22)     
1 38098U 12011A   26112.16961329 -.00000068  00000+0  00000+0 0  9995
2 38098   0.0046 234.2401 0001937 170.3869 298.7867  1.00277081  6627
INTELSAT 19 (IS-19)     
1 38356U 12030A   26112.47891865 -.00000066  00000+0  00000+0 0  9992
2 38356   0.0058  59.2971 0002807 328.2929 161.3617  1.00271385 49897
INTELSAT 20 (IS-20)     
1 38740U 12043A   26112.63735140 -.00000034  00000+0  00000+0 0  9999
2 38740   0.0156 166.0472 0002220   8.1236 334.4679  1.00271763 50196
INTELSAT 21 (IS-21)     
1 38749U 12045A   26112.38059383 -.00000294  00000+0  00000+0 0  9998
2 38749   0.0526  75.6076 0001866 325.1573 248.6896  1.00270269 49962
INTELSAT 23 (IS-23)     
1 38867U 12057A   26112.38961981 -.00000294  00000+0  00000+0 0  9998
2 38867   0.0192 271.3913 0000230  19.2944   7.0356  1.00268820 49399
FM-6                    
1 39360U 13058A   26112.19279444 -.00000025  00000+0  00000+0 0  9996
2 39360   0.0162 252.7952 0002795 247.2426  23.3464  1.00274257 45519
INTELSAT 30 (IS-30)     
1 40271U 14062A   26112.66268584 -.00000161  00000+0  00000+0 0  9991
2 40271   0.0095 231.4333 0002301  39.4348  83.3708  1.00269550  6234
DIRECTV 14              
1 40333U 14078B   26112.44432450 -.00000135  00000+0  00000+0 0  9999
2 40333   0.0130 259.1286 0000499 277.6403  94.4573  1.00271027 41482
DIRECTV 15              
1 40663U 15026A   26112.50878407 -.00000112  00000+0  00000+0 0  9997
2 40663   0.0402  74.7302 0000343 200.1682  15.9544  1.00270581 39902
SKY MEXICO-1            
1 40664U 15026B   26112.49767132 -.00000244  00000+0  00000+0 0  9994
2 40664   0.0352  70.1083 0001936 315.8916 284.9058  1.00269281 39897
INTELSAT 34 (IS-34)     
1 40874U 15039A   26112.38827471 -.00000295  00000+0  00000+0 0  9998
2 40874   0.0192 281.3248 0000427  11.7787   1.6335  1.00269975 39075
INTELSAT 31 (IS-31)     
1 41581U 16035A   26111.09852917 -.00000155  00000+0  00000+0 0  9996
2 41581   0.0133 232.7109 0002436  33.8993 243.0043  1.00271329 36114
INTELSAT 36 (IS-36)     
1 41747U 16053A   26112.63735117 -.00000034  00000+0  00000+0 0  9999
2 41747   0.0166 287.3871 0001455  28.7727 192.4790  1.00270629 35403
INTELSAT 32E (IS-32E)   
1 41945U 17007B   26112.23289196  .00000000  00000+0  00000+0 0  9998
2 41945   0.0130 238.5293 0000446  31.2954 341.1341  1.00267511 33667
INTELSAT 35E (IS-35E)   
1 42818U 17041A   26112.13776089 -.00000246  00000+0  00000+0 0  9990
2 42818   0.0170 244.6816 0001700 139.1445 201.4516  1.00270149 32254
INTELSAT 37E (IS-37E)   
1 42950U 17059A   26112.22197836 -.00000149  00000+0  00000+0 0  9995
2 42950   0.0149 239.9621 0001920 169.3342 222.8996  1.00271670 31509
AZERSPACE 2 (IS-38)     
1 43632U 18074A   26112.30739530  .00000000  00000+0  00000+0 0  9998
2 43632   0.0127 234.1371 0001366 153.0130 338.9868  1.00270985 27882
HORIZONS-3E             
1 43633U 18074B   26112.17806106 -.00000039  00000+0  00000+0 0  9991
2 43633   0.0191 118.0616 0000851 199.2779 125.9951  1.00271375 27774
AT&T T-16               
1 44333U 19034A   26112.50878407 -.00000125  00000+0  00000+0 0  9992
2 44333   0.0342  72.1343 0000896 143.2029  77.5243  1.00269877 25074
INTELSAT 39 (IS-39)     
1 44476U 19049B   26112.63171785  .00000024  00000+0  00000+0 0  9992
2 44476   0.0180 243.8558 0000713   3.3482 252.8450  1.00270464 24570
GALAXY 30 (G-30)        
1 46114U 20056C   26112.04858054  .00000029  00000+0  00000+0 0  9994
2 46114   0.0081 211.3106 0002123 181.4289  69.8530  1.00272031 20731
GALAXY 33 (G-33)        
1 54026U 22128A   26112.44558765  .00000069  00000+0  00000+0 0  9991
2 54026   0.0012  30.2849 0001715 352.7516 214.8887  1.00272599 13187
GALAXY 34 (G-34)        
1 54027U 22128B   26112.40420912  .00000000  00000+0  00000+0 0  9995
2 54027   0.0173 252.1925 0001414 132.8579 201.9113  1.00270027 13350
GALAXY 31 (G-31)        
1 54243U 22153A   26112.44988101  .00000004  00000+0  00000+0 0  9990
2 54243   0.0127 162.2510 0001229 221.7327 227.4859  1.00272042  6578
GALAXY 32 (G-32)        
1 54244U 22153B   26112.50322366 -.00000184  00000+0  00000+0 0  9993
2 54244   0.0151 271.6980 0002773 106.0930 282.9306  1.00270884 12585
GALAXY 35 (G-35)        
1 54741U 22170A   26112.50322366 -.00000172  00000+0  00000+0 0  9991
2 54741   0.0174 213.4369 0001894 176.4109 268.7551  1.00270302 12331
GALAXY 36 (G-36)        
1 54742U 22170B   26112.50322366 -.00000195  00000+0  00000+0 0  9997
2 54742   0.0140 223.3103 0002529 198.4433 240.9664  1.00271249 12216
GALAXY 37 (G-37)        
1 57493U 23112A   26112.49142017  .00000038  00000+0  00000+0 0  9996
2 57493   0.0160 257.3638 0001807 125.5600 237.5463  1.00273504  9984
